[
    {
        "Altitude(m)": 607895.8206548715,
        "Argument of Periapsis(deg)": 0.0,
        "Eccentricity": 0.0,
        "Inclination(deg)": 60.0,
        "Latitude(deg)": 40.9983484495692,
        "Longitude(deg)": -174.91125933232422,
        "Mean Anomaly(deg)": 130.9091,
        "RAAN(deg)": 135.0,
        "Satellite Name": "Test1 602",
        "Satellite Number": 602,
        "Semi-Major Axis(m)": 6980739.136638005,
        "Time(s)": 0
    },
    {
        "Altitude(m)": 607795.1331385444,
        "Argument of Periapsis(deg)": 0.00010418945913296404,
        "Eccentricity": 0.0,
        "Inclination(deg)": 60.0,
        "Latitude(deg)": 40.530671754148784,
        "Longitude(deg)": -174.41466699214533,
        "Mean Anomaly(deg)": 131.52920614546187,
        "RAAN(deg)": 134.99957995086024,
        "Satellite Name": "Test1 602",
        "Satellite Number": 602,
        "Semi-Major Axis(m)": 6980739.136638005,
        "Time(s)": 10
    },
    {
        "Altitude(m)": 607694.6211781937,
        "Argument of Periapsis(deg)": 0.0002083789182659281,
        "Eccentricity": 0.0,
        "Inclination(deg)": 60.0,
        "Latitude(deg)": 40.06048512131696,
        "Longitude(deg)": -173.92551551681606,
        "Mean Anomaly(deg)": 132.1493122909237,
        "RAAN(deg)": 134.99915990172053,
        "Satellite Name": "Test1 602",
        "Satellite Number": 602,
        "Semi-Major Axis(m)": 6980739.136638005,
        "Time(s)": 20
    },
    {
        "Altitude(m)": 607594.3484727072,
        "Argument of Periapsis(deg)": 0.00031256837739889213,
        "Eccentricity": 0.0,
        "Inclination(deg)": 60.0,
        "Latitude(deg)": 39.5878621245381,
        "Longitude(deg)": -173.4436192999444,
        "Mean Anomaly(deg)": 132.7694184363855,
        "RAAN(deg)": 134.99873985258077,
        "Satellite Name": "Test1 602",
        "Satellite Number": 602,
        "Semi-Major Axis(m)": 6980739.136638005,
        "Time(s)": 30
    },
    {
        "Altitude(m)": 607494.3788213017,
        "Argument of Periapsis(deg)": 0.0004167578365318562,
        "Eccentricity": 0.0,
        "Inclination(deg)": 60.0,
        "Latitude(deg)": 39.112874097116155,
        "Longitude(deg)": -172.96879577511098,
        "Mean Anomaly(deg)": 133.38952458184733,
        "RAAN(deg)": 134.99831980344103,
        "Satellite Name": "Test1 602",
        "Satellite Number": 602,
        "Semi-Major Axis(m)": 6980739.136638005,
        "Time(s)": 40
    },
    {
        "Altitude(m)": 607394.7760916582,
        "Argument of Periapsis(deg)": 0.0005209472956648203,
        "Eccentricity": 0.0,
        "Inclination(deg)": 60.0,
        "Latitude(deg)": 38.635590205557364,
        "Longitude(deg)": -172.50086643631263,
        "Mean Anomaly(deg)": 134.00963072730917,
        "RAAN(deg)": 134.99789975430127,
        "Satellite Name": "Test1 602",
        "Satellite Number": 602,
        "Semi-Major Axis(m)": 6980739.136638005,
        "Time(s)": 50
    },
    {
        "Altitude(m)": 607295.604187904,
        "Argument of Periapsis(deg)": 0.0006251367547977843,
        "Eccentricity": 0.0,
        "Inclination(deg)": 60.0,
        "Latitude(deg)": 38.15607752139043,
        "Longitude(deg)": -172.03965633471438,
        "Mean Anomaly(deg)": 134.629736872771,
        "RAAN(deg)": 134.99747970516157,
        "Satellite Name": "Test1 602",
        "Satellite Number": 602,
        "Semi-Major Axis(m)": 6980739.136638005,
        "Time(s)": 60
    },
    {
        "Altitude(m)": 607196.9270185636,
        "Argument of Periapsis(deg)": 0.0007293262139307483,
        "Eccentricity": 0.0,
        "Inclination(deg)": 60.0,
        "Latitude(deg)": 37.674401091378755,
        "Longitude(deg)": -171.5849935657174,
        "Mean Anomaly(deg)": 135.24984301823278,
        "RAAN(deg)": 134.9970596560218,
        "Satellite Name": "Test1 602",
        "Satellite Number": 602,
        "Semi-Major Axis(m)": 6980739.136638005,
        "Time(s)": 70
    },
    {
        "Altitude(m)": 607098.8084644229,
        "Argument of Periapsis(deg)": 0.0008335156730637124,
        "Eccentricity": 0.0,
        "Inclination(deg)": 60.0,
        "Latitude(deg)": 37.190624006074955,
        "Longitude(deg)": -171.13671026026162,
        "Mean Anomaly(deg)": 135.86994916369463,
        "RAAN(deg)": 134.99663960688207,
        "Satellite Name": "Test1 602",
        "Satellite Number": 602,
        "Semi-Major Axis(m)": 6980739.136638005,
        "Time(s)": 80
    },
    {
        "Altitude(m)": 607001.31234638,
        "Argument of Periapsis(deg)": 0.0009377051321966765,
        "Eccentricity": 0.0,
        "Inclination(deg)": 60.0,
        "Latitude(deg)": 36.70480746667272,
        "Longitude(deg)": -170.69464205557782,
        "Mean Anomaly(deg)": 136.49005530915647,
        "RAAN(deg)": 134.9962195577423,
        "Satellite Name": "Test1 602",
        "Satellite Number": 602,
        "Semi-Major Axis(m)": 6980739.136638005,
        "Time(s)": 90
    },
    {
        "Altitude(m)": 606904.5023932626,
        "Argument of Periapsis(deg)": 0.0010418945913296407,
        "Eccentricity": 0.0,
        "Inclination(deg)": 60.0,
        "Latitude(deg)": 36.21701085013056,
        "Longitude(deg)": -170.25862755914483,
        "Mean Anomaly(deg)": 137.11016145461832,
        "RAAN(deg)": 134.9957995086026,
        "Satellite Name": "Test1 602",
        "Satellite Number": 602,
        "Semi-Major Axis(m)": 6980739.136638005,
        "Time(s)": 100
    },
    {
        "Altitude(m)": 606808.4422096255,
        "Argument of Periapsis(deg)": 0.0011460840504626045,
        "Eccentricity": 0.0,
        "Inclination(deg)": 60.0,
        "Latitude(deg)": 35.72729177255331,
        "Longitude(deg)": -169.82850931953547,
        "Mean Anomaly(deg)": 137.73026760008014,
        "RAAN(deg)": 134.9953794594628,
        "Satellite Name": "Test1 602",
        "Satellite Number": 602,
        "Semi-Major Axis(m)": 6980739.136638005,
        "Time(s)": 110
    },
    {
        "Altitude(m)": 606713.195243567,
        "Argument of Periapsis(deg)": 0.0012502735095955685,
        "Eccentricity": 0.0,
        "Inclination(deg)": 60.0,
        "Latitude(deg)": 35.23570615081752,
        "Longitude(deg)": -169.4041332791425,
        "Mean Anomaly(deg)": 138.350373745542,
        "RAAN(deg)": 134.99495941032308,
        "Satellite Name": "Test1 602",
        "Satellite Number": 602,
        "Semi-Major Axis(m)": 6980739.136638005,
        "Time(s)": 120
    },
    {
        "Altitude(m)": 606618.8247545612,
        "Argument of Periapsis(deg)": 0.0013544629687285324,
        "Eccentricity": 0.0,
        "Inclination(deg)": 60.0,
        "Latitude(deg)": 34.74230826244372,
        "Longitude(deg)": -168.985348222337,
        "Mean Anomaly(deg)": 138.97047989100378,
        "RAAN(deg)": 134.99453936118334,
        "Satellite Name": "Test1 602",
        "Satellite Number": 602,
        "Semi-Major Axis(m)": 6980739.136638005,
        "Time(s)": 130
    },
    {
        "Altitude(m)": 606525.3937813333,
        "Argument of Periapsis(deg)": 0.0014586524278614966,
        "Eccentricity": 0.0,
        "Inclination(deg)": 60.0,
        "Latitude(deg)": 34.24715080372481,
        "Longitude(deg)": -168.57200673254462,
        "Mean Anomaly(deg)": 139.59058603646568,
        "RAAN(deg)": 134.9941193120436,
        "Satellite Name": "Test1 602",
        "Satellite Number": 602,
        "Semi-Major Axis(m)": 6980739.136638005,
        "Time(s)": 140
    },
    {
        "Altitude(m)": 606432.9651097729,
        "Argument of Periapsis(deg)": 0.0015628418869944607,
        "Eccentricity": 0.0,
        "Inclination(deg)": 60.0,
        "Latitude(deg)": 33.75028494611904,
        "Longitude(deg)": -168.16396463305784,
        "Mean Anomaly(deg)": 140.21069218192747,
        "RAAN(deg)": 134.99369926290385,
        "Satellite Name": "Test1 602",
        "Satellite Number": 602,
        "Semi-Major Axis(m)": 6980739.136638005,
        "Time(s)": 150
    },
    {
        "Altitude(m)": 606341.6012409502,
        "Argument of Periapsis(deg)": 0.0016670313461274247,
        "Eccentricity": 0.0,
        "Inclination(deg)": 60.0,
        "Latitude(deg)": 33.25176039092742,
        "Longitude(deg)": -167.76108042496244,
        "Mean Anomaly(deg)": 140.8307983273893,
        "RAAN(deg)": 134.9932792137641,
        "Satellite Name": "Test1 602",
        "Satellite Number": 602,
        "Semi-Major Axis(m)": 6980739.136638005,
        "Time(s)": 160
    },
    {
        "Altitude(m)": 606251.3643591744,
        "Argument of Periapsis(deg)": 0.0017712208052603888,
        "Eccentricity": 0.0,
        "Inclination(deg)": 60.0,
        "Latitude(deg)": 32.75162542228257,
        "Longitude(deg)": -167.3632162355158,
        "Mean Anomaly(deg)": 141.4509044728511,
        "RAAN(deg)": 134.99285916462438,
        "Satellite Name": "Test1 602",
        "Satellite Number": 602,
        "Semi-Major Axis(m)": 6980739.136638005,
        "Time(s)": 170
    },
    {
        "Altitude(m)": 606162.3163001878,
        "Argument of Periapsis(deg)": 0.001875410264393353,
        "Eccentricity": 0.0,
        "Inclination(deg)": 60.0,
        "Latitude(deg)": 32.249926958469096,
        "Longitude(deg)": -166.97023725164604,
        "Mean Anomaly(deg)": 142.07101061831293,
        "RAAN(deg)": 134.99243911548464,
        "Satellite Name": "Test1 602",
        "Satellite Number": 602,
        "Semi-Major Axis(m)": 6980739.136638005,
        "Time(s)": 180
    },
    {
        "Altitude(m)": 606074.518519451,
        "Argument of Periapsis(deg)": 0.0019795997235263173,
        "Eccentricity": 0.0,
        "Inclination(deg)": 60.0,
        "Latitude(deg)": 31.74671060160919,
        "Longitude(deg)": -166.58201115182294,
        "Mean Anomaly(deg)": 142.69111676377477,
        "RAAN(deg)": 134.99201906634488,
        "Satellite Name": "Test1 602",
        "Satellite Number": 602,
        "Semi-Major Axis(m)": 6980739.136638005,
        "Time(s)": 190
    }
]